{"divisions":{"ocd-division/country:us/state:pa/county:pike":{"name":"Pike County","officeIndices":[0,1,2,3,4,5,6,7]}},"offices":[{"name":"Auditor","divisionId":"ocd-division/country:us/state:pa/county:pike","officialIndices":[0,1,2]},{"name":"Coroner","divisionId":"ocd-division/country:us/state:pa/county:pike","officialIndices":[3]},{"name":"Sheriff","divisionId":"ocd-division/country:us/state:pa/county:pike","officialIndices":[4]},{"name":"County Treasurer","divisionId":"ocd-division/country:us/state:pa/county:pike","officialIndices":[5]},{"name":"District Attorney","divisionId":"ocd-division/country:us/state:pa/county:pike","officialIndices":[6]},{"name":"County Commissioner","divisionId":"ocd-division/country:us/state:pa/county:pike","officialIndices":[7,8,9]},{"name":"Recorder of Deeds/Register of Wills","divisionId":"ocd-division/country:us/state:pa/county:pike","officialIndices":[10]},{"name":"Prothonotary, Clerk of the Courts, and Clerk of the Orphans' Court","divisionId":"ocd-division/country:us/state:pa/county:pike","officialIndices":[11]}],"officials":[{"name":"Tom Foran","address":[{"line1":"506 broad street","city":"milford","state":"PA","zip":"18337"}],"party":"Republican","phones":["(570) 296-3600"],"urls":["http://www.pikepa.org/auditors.html"]},{"name":"Missi Strub","address":[{"line1":"506 broad street","city":"milford","state":"PA","zip":"18337"}],"party":"Democratic","phones":["(570) 296-3600"],"urls":["http://www.pikepa.org/auditors.html"]},{"name":"Ann Seaman","address":[{"line1":"506 broad street","city":"milford","state":"PA","zip":"18337"}],"party":"Republican","phones":["(570) 296-3600"],"urls":["http://www.pikepa.org/auditors.html"]},{"name":"Kevin T. Stroyan","address":[{"line1":"506 broad st.","city":"milford","state":"PA","zip":"18337"}],"party":"Republican","phones":["(570) 296-6811"]},{"name":"Philip Bueki","address":[{"line1":"500 broad street","city":"milford","state":"PA","zip":"18337"}],"party":"Republican","phones":["(570) 296-6459"],"urls":["http://www.pikepa.org/sheriff.html"]},{"name":"John Gilpin","address":[{"line1":"412 broad street","city":"milford","state":"PA","zip":"18337"}],"party":"Republican","phones":["(570) 296-7231"],"urls":["http://www.pikepa.org/clerkcourts.html"]},{"name":"Raymond J. Tonkin","address":[{"line1":"506 broad street","city":"milford","state":"PA","zip":"18337"}],"party":"Republican","phones":["(570) 296-6620"],"urls":["http://www.pikepa.org/da.html"],"emails":["daoffice@pikepa.org"]},{"name":"Matthew Osterberg","address":[{"line1":"506 broad street","city":"milford","state":"PA","zip":"18337"}],"party":"Republican","phones":["(570) 296-7613"],"urls":["http://www.pikepa.org/commissioners.html"],"emails":["mosterberg@pikepa.org"]},{"name":"Richard Caridi","address":[{"line1":"506 broad street","city":"milford","state":"PA","zip":"18337"}],"party":"Republican","phones":["(570) 296-7613"],"urls":["http://www.pikepa.org/commissioners.html"],"emails":["rcaridi@pikepa.org"]},{"name":"Karl Wagner Jr.","address":[{"line1":"506 broad street","city":"milford","state":"PA","zip":"18337"}],"party":"Democratic","phones":["(570) 296-7613"],"urls":["http://www.pikepa.org/commissioners.html"],"emails":["kwagner@pikepa.org"]},{"name":"Sharon Schroeder","address":[{"line1":"506 broad street","city":"milford","state":"PA","zip":"18337"}],"party":"Republican","phones":["(570) 296-3508"],"urls":["http://www.pikepa.org/recdeed.html"],"emails":["sschroeder@pikepa.org"]},{"name":"Denise Fitzpatrick","address":[{"line1":"412 broad street","city":"milford","state":"PA","zip":"18337"}],"party":"Republican","phones":["(570) 296-7231"],"urls":["http://www.pikepa.org/prothonotary.html"]}]}