{"divisions":{"ocd-division/country:us/state:pa/county:mifflin":{"name":"Mifflin County","officeIndices":[0,1,2,3,4,5,6,7,8]}},"offices":[{"name":"Auditor","divisionId":"ocd-division/country:us/state:pa/county:mifflin","officialIndices":[0,1,2]},{"name":"Coroner","divisionId":"ocd-division/country:us/state:pa/county:mifflin","officialIndices":[3]},{"name":"Sheriff","divisionId":"ocd-division/country:us/state:pa/county:mifflin","officialIndices":[4]},{"name":"Treasurer","divisionId":"ocd-division/country:us/state:pa/county:mifflin","officialIndices":[5]},{"name":"District Attorney","divisionId":"ocd-division/country:us/state:pa/county:mifflin","officialIndices":[6]},{"name":"Jury Commissioner","divisionId":"ocd-division/country:us/state:pa/county:mifflin","officialIndices":[7,8]},{"name":"Register/Recorder","divisionId":"ocd-division/country:us/state:pa/county:mifflin","officialIndices":[9]},{"name":"County Commissioner","divisionId":"ocd-division/country:us/state:pa/county:mifflin","officialIndices":[10,11,12]},{"name":"Prothonotary/Clerk of Courts","divisionId":"ocd-division/country:us/state:pa/county:mifflin","officialIndices":[13]}],"officials":[{"name":"Cynthia Knorr","address":[{"line1":"Mifflin County Courthouse","line2":"20 north wayne street","city":"lewistown","state":"PA","zip":"17044"}],"party":"Unknown","phones":["(717) 242-5451"],"emails":["cknorr@co.mifflin.pa.us"]},{"name":"Helen Kirk","address":[{"line1":"Mifflin County Courthouse","line2":"20 north wayne street","city":"lewistown","state":"PA","zip":"17044"}],"party":"Unknown","phones":["(717) 242-5451"],"emails":["hkirk@co.mifflin.pa.us"]},{"name":"James W. North","address":[{"line1":"Mifflin County Courthouse","line2":"20 north wayne street","city":"lewistown","state":"PA","zip":"17044"}],"party":"Unknown","phones":["(717) 242-5451"],"emails":["jnorth@co.mifflin.pa.us"]},{"name":"Daniel P. Lynch","address":[{"line1":"Mifflin County Courthouse","line2":"20 north wayne st.","city":"lewistown","state":"PA","zip":"17044"}],"party":"Unknown","phones":["(717) 242-4591"],"emails":["dlynch@co.mifflin.pa.us"]},{"name":"Christopher S. Shade","address":[{"line1":"Mifflin County Courthouse","line2":"20 north wayne street","city":"lewistown","state":"PA","zip":"17044"}],"party":"Unknown","phones":["(717) 242-1105"],"emails":["sheriff@co.mifflin.pa.us"]},{"name":"Janice E. Peachey","address":[{"line1":"Mifflin County Courthouse","line2":"20 north wayne street","city":"lewistown","state":"PA","zip":"17044"}],"party":"Unknown","phones":["(717) 248-8439"],"emails":["treasurer@co.mifflin.pa.us"]},{"name":"David W. Molek","address":[{"line1":"20 north main street","city":"lewistown","state":"PA","zip":"17044"}],"party":"Unknown","phones":["(717) 248-9800"]},{"name":"Freda Hook","address":[{"line1":"108 First Avenue 3FL","city":"burnham","state":"PA","zip":"17009"}],"party":"Unknown"},{"name":"Terra Noerr","address":[{"line1":"10262 US HWY 522S","city":"lewistown","state":"PA","zip":"17044"}],"party":"Unknown"},{"name":"Barbara A. Stringer","address":[{"line1":"Mifflin County Courthouse","line2":"20 north wayne street","city":"lewistown","state":"PA","zip":"17044"}],"party":"Unknown","phones":["(717) 242-1449"],"emails":["bstringer@co.mifflin.pa.us"]},{"name":"Mark Sunderland","address":[{"line1":"Mifflin County Commissioners","line2":"20 north wayne st.","city":"lewistown","state":"PA","zip":"17044"}],"party":"Unknown","phones":["(717) 248-6733"],"emails":["msunderland@co.mifflin.pa.us"]},{"name":"Kevin Kodish","address":[{"line1":"Mifflin County Commissioners","line2":"20 north wayne st.","city":"lewistown","state":"PA","zip":"17044"}],"party":"Unknown","phones":["(717) 248-6733"],"emails":["kkodish@co.mifflin.pa.us"]},{"name":"Otis Riden","address":[{"line1":"Mifflin County Commissioners","line2":"20 north wayne st.","city":"lewistown","state":"PA","zip":"17044"}],"party":"Unknown","phones":["(717) 248-6733"],"emails":["oriden@co.mifflin.pa.us"]},{"name":"Tammy Stuck","address":[{"line1":"Mifflin County Courthouse","line2":"20 north wayne street","city":"lewistown","state":"PA","zip":"17044"}],"party":"Unknown","phones":["(717) 248-8146"],"emails":["prothonotary@co.mifflin.pa.us"]}]}