{"divisions":{"ocd-division/country:us/state:oh/county:jefferson":{"name":"Jefferson County","officeIndices":[0,1,2,3,4,5,6,7,8]}},"offices":[{"name":"Coroner","divisionId":"ocd-division/country:us/state:oh/county:jefferson","officialIndices":[0]},{"name":"Sheriff","divisionId":"ocd-division/country:us/state:oh/county:jefferson","officialIndices":[1]},{"name":"County Auditor","divisionId":"ocd-division/country:us/state:oh/county:jefferson","officialIndices":[2]},{"name":"Clerk of Courts","divisionId":"ocd-division/country:us/state:oh/county:jefferson","officialIndices":[3]},{"name":"County Engineer","divisionId":"ocd-division/country:us/state:oh/county:jefferson","officialIndices":[4]},{"name":"County Recorder","divisionId":"ocd-division/country:us/state:oh/county:jefferson","officialIndices":[5]},{"name":"County Treasurer","divisionId":"ocd-division/country:us/state:oh/county:jefferson","officialIndices":[6]},{"name":"County Commission","divisionId":"ocd-division/country:us/state:oh/county:jefferson","officialIndices":[7,8,9]},{"name":"Prosecuting Attorney","divisionId":"ocd-division/country:us/state:oh/county:jefferson","officialIndices":[10]}],"officials":[{"name":"Michael Scarpone","address":[{"line1":"301 market street","city":"steubenville","state":"OH","zip":"43952"}],"party":"Democratic"},{"name":"Fred Abdalla","address":[{"line1":"16001 state route 7","city":"steubenville","state":"OH","zip":"43952"}],"party":"Democratic","phones":["(740) 283-8600"]},{"name":"Patrick Marshall","address":[{"line1":"301 market street","city":"steubenville","state":"OH","zip":"43952"}],"party":"Democratic"},{"name":"John Corrigan Jr.","address":[{"line1":"301 market street","city":"steubenville","state":"OH","zip":"43952"}],"party":"Unknown"},{"name":"James Branagan","address":[{"line1":"301 market street","city":"steubenville","state":"OH","zip":"43952"}],"party":"Democratic"},{"name":"Paul McKeegan","address":[{"line1":"301 market street","city":"steubenville","state":"OH","zip":"43952"}],"party":"Democratic"},{"name":"Raymond Agresta","address":[{"line1":"301 market street","city":"steubenville","state":"OH","zip":"43952"}],"party":"Democratic","phones":["(740) 283-8572"]},{"name":"Thomas Graham","address":[{"line1":"301 market street","city":"steubenville","state":"OH","zip":"43952"}],"party":"Democratic"},{"name":"Thomas Gentile","address":[{"line1":"301 market st","city":"steubenville","state":"OH","zip":"43952"}],"party":"Democratic"},{"name":"David Maple","address":[{"line1":"301 market street","city":"steubenville","state":"OH","zip":"43952"}],"party":"Republican"},{"name":"Jane Hanlin","address":[{"line1":"301 market street","city":"steubenville","state":"OH","zip":"43952"}],"party":"Democratic"}]}