{"divisions":{"ocd-division/country:us/state:oh/county:licking":{"name":"Licking County","officeIndices":[0,1,2,3,4,5,6,7,8]}},"offices":[{"name":"Coroner","divisionId":"ocd-division/country:us/state:oh/county:licking","officialIndices":[0]},{"name":"Sheriff","divisionId":"ocd-division/country:us/state:oh/county:licking","officialIndices":[1]},{"name":"Engineer","divisionId":"ocd-division/country:us/state:oh/county:licking","officialIndices":[2]},{"name":"Treasurer","divisionId":"ocd-division/country:us/state:oh/county:licking","officialIndices":[3]},{"name":"County Auditor","divisionId":"ocd-division/country:us/state:oh/county:licking","officialIndices":[4]},{"name":"Clerk of Courts","divisionId":"ocd-division/country:us/state:oh/county:licking","officialIndices":[5]},{"name":"County Recorder","divisionId":"ocd-division/country:us/state:oh/county:licking","officialIndices":[6]},{"name":"County Commission","divisionId":"ocd-division/country:us/state:oh/county:licking","officialIndices":[7,8,9]},{"name":"Prosecuting Attorney","divisionId":"ocd-division/country:us/state:oh/county:licking","officialIndices":[10]}],"officials":[{"name":"Robert Raker","address":[{"line1":"Michael E. Campolo","line2":"DO","line3":"2102 cherry valley road","city":"newark","state":"OH","zip":"43055"}],"party":"Unknown","phones":["(740) 349-3633"],"urls":["http://www.lcounty.com/"]},{"name":"Randy Thorp","address":[{"line1":"20 south second street","city":"newark","state":"OH","zip":"43055"}],"party":"Unknown","urls":["http://www.lcounty.com/"]},{"name":"Bill Lozier","address":[{"line1":"20 south second street","city":"newark","state":"OH","zip":"43055"}],"party":"Unknown","phones":["(740) 670-5280"],"urls":["http://www.lcounty.com/"]},{"name":"Scott Ryan","address":[{"line1":"20 south second street","city":"newark","state":"OH","zip":"43055"}],"party":"Unknown","phones":["(740) 670-5010"],"urls":["http://www.lcounty.com/"]},{"name":"Michael Smith","address":[{"line1":"20 south second street","city":"newark","state":"OH","zip":"43055"}],"party":"Unknown","phones":["(740) 670-5040"],"urls":["http://www.lcounty.com/"]},{"name":"Gary Walters","party":"Unknown","urls":["http://www.lcounty.com/"]},{"name":"Bryan Long","address":[{"line1":"20 south second street","city":"newark","state":"OH","zip":"43055"}],"party":"Unknown","phones":["(740) 670-5300"],"urls":["http://www.lcounty.com/"]},{"name":"Timothy Bubb","address":[{"line1":"20 south second street","city":"newark","state":"OH","zip":"43055"}],"party":"Unknown","phones":["(740) 670-5110"],"urls":["http://www.lcounty.com/"]},{"name":"Douglas Smith","address":[{"line1":"20 south second street","city":"newark","state":"OH","zip":"43055"}],"party":"Unknown","phones":["(740) 670-5110"],"urls":["http://www.lcounty.com/"]},{"name":"Duane Flowers","address":[{"line1":"20 south second street","city":"newark","state":"OH","zip":"43055"}],"party":"Unknown","phones":["(740) 670-5110"],"urls":["http://www.lcounty.com/"]},{"name":"Kenneth Oswalt","address":[{"line1":"20 south second street","city":"newark","state":"OH","zip":"43055"}],"party":"Unknown","phones":["(740) 670-5025"],"urls":["http://www.lcounty.com/"]}]}