{"divisions":{"ocd-division/country:us/state:oh/county:ross":{"name":"Ross County","officeIndices":[0,1,2,3,4,5,6,7,8]}},"offices":[{"name":"Coroner","divisionId":"ocd-division/country:us/state:oh/county:ross","officialIndices":[0]},{"name":"Sheriff","divisionId":"ocd-division/country:us/state:oh/county:ross","officialIndices":[1]},{"name":"Engineer","divisionId":"ocd-division/country:us/state:oh/county:ross","officialIndices":[2]},{"name":"Treasurer","divisionId":"ocd-division/country:us/state:oh/county:ross","officialIndices":[3]},{"name":"County Auditor","divisionId":"ocd-division/country:us/state:oh/county:ross","officialIndices":[4]},{"name":"Clerk of Courts","divisionId":"ocd-division/country:us/state:oh/county:ross","officialIndices":[5]},{"name":"County Recorder","divisionId":"ocd-division/country:us/state:oh/county:ross","officialIndices":[6]},{"name":"County Commission","divisionId":"ocd-division/country:us/state:oh/county:ross","officialIndices":[7,8,9]},{"name":"Prosecuting Attorney","divisionId":"ocd-division/country:us/state:oh/county:ross","officialIndices":[10]}],"officials":[{"name":"John Gabis","address":[{"line1":"2 north paint street","city":"chillicothe","state":"OH","zip":"45601"}],"party":"Democratic"},{"name":"George Lavender Jr.","address":[{"line1":"2 north paint street","city":"chillicothe","state":"OH","zip":"45601"}],"party":"Republican"},{"name":"Charlie Ortman","address":[{"line1":"2 north paint street","city":"chillicothe","state":"OH","zip":"45601"}],"party":"Republican"},{"name":"Jerald Byers","address":[{"line1":"2 north paint street","city":"chillicothe","state":"OH","zip":"45601"}],"party":"Democratic"},{"name":"Thomas M. Spetnagel Jr","address":[{"line1":"2 north paint street","city":"chillicothe","state":"OH","zip":"45601"}],"party":"Democratic"},{"name":"Ty Hinton","address":[{"line1":"2 north paint street","city":"chillicothe","state":"OH","zip":"45601"}],"party":"Democratic"},{"name":"Kathy Dunn","address":[{"line1":"2 north paint street","city":"chillicothe","state":"OH","zip":"45601"}],"party":"Democratic"},{"name":"R. Douglas Corcoran","address":[{"line1":"2 north paint street","city":"chillicothe","state":"OH","zip":"45601"}],"party":"Democratic","phones":["(740) 702-3085"],"urls":["http://www.rosscountycommissioners.com/"]},{"name":"James Caldwell","address":[{"line1":"2 north paint street","city":"chillicothe","state":"OH","zip":"45601"}],"party":"Republican","phones":["(740) 702-3085"],"urls":["http://www.rosscountycommissioners.com/"]},{"name":"Stephen A Neal","address":[{"line1":"2 north paint street","city":"chillicothe","state":"OH","zip":"45601"}],"party":"Democratic","phones":["(740) 702-3085"],"urls":["http://www.rosscountycommissioners.com/"]},{"name":"Matthew S Schmidt","address":[{"line1":"2 north paint street","city":"chillicothe","state":"OH","zip":"45601"}],"party":"Republican"}]}