{"divisions":{"ocd-division/country:us/state:oh/county:columbiana":{"name":"Columbiana County","officeIndices":[0,1,2,3,4,5,6,7,8]}},"offices":[{"name":"Auditor","divisionId":"ocd-division/country:us/state:oh/county:columbiana","officialIndices":[0]},{"name":"Coroner","divisionId":"ocd-division/country:us/state:oh/county:columbiana","officialIndices":[1]},{"name":"Sheriff","divisionId":"ocd-division/country:us/state:oh/county:columbiana","officialIndices":[2]},{"name":"Recorder","divisionId":"ocd-division/country:us/state:oh/county:columbiana","officialIndices":[3]},{"name":"Treasurer","divisionId":"ocd-division/country:us/state:oh/county:columbiana","officialIndices":[4]},{"name":"Clerk Of Courts","divisionId":"ocd-division/country:us/state:oh/county:columbiana","officialIndices":[5]},{"name":"County Engineer","divisionId":"ocd-division/country:us/state:oh/county:columbiana","officialIndices":[6]},{"name":"County Commission","divisionId":"ocd-division/country:us/state:oh/county:columbiana","officialIndices":[7,8,9]},{"name":"Prosecuting Attorney","divisionId":"ocd-division/country:us/state:oh/county:columbiana","officialIndices":[10]}],"officials":[{"name":"Nancy Milliken","address":[{"line1":"105 south market street","city":"lisbon","state":"OH","zip":"44432"}],"party":"Unknown","phones":["(330) 424-9515"],"urls":["http://www.columbianacntyauditor.org/propertymax/rover30.asp?sid=9F9A4FB182B34458A096601071843446"]},{"name":"William Graham","address":[{"line1":"William A. Graham","line2":"Jr.","line3":"M.D. Columbiana County Coroner","city":"lisbon","state":"OH","zip":"44432"}],"party":"Unknown","phones":["(330) 424-5029"],"urls":["http://www.columbianacounty.org/Coroner/coroner.htm"]},{"name":"Ray Stone","address":[{"line1":"105 south market street","city":"lisbon","state":"OH","zip":"44432"}],"party":"Unknown","phones":["(330) 424-7255"],"urls":["http://www.colcountysheriff.com/"]},{"name":"Theresa Bosel","address":[{"line1":"Attn: Theresa Bosel","line2":"105 south market street","city":"lisbon","state":"OH","zip":"44432"}],"party":"Unknown","phones":["(330) 424-9517"],"urls":["http://www.columbianacountyrecorder.org/recorder/contact.php"]},{"name":"Linda S. Bolon","address":[{"line1":"105 south market street","city":"lisbon","state":"OH","zip":"44432"}],"party":"Unknown","phones":["(330) 424-9514"],"urls":["http://www.columbianacounty.org/Treasurer/index.html"]},{"name":"Anthony Dattilio","address":[{"line1":"105 south market street","city":"lisbon","state":"OH","zip":"44432"}],"party":"Unknown","urls":["http://www.ccclerk.org/"]},{"name":"Bert Dawson","address":[{"line1":"105 south market street","city":"lisbon","state":"OH","zip":"44432"}],"party":"Unknown"},{"name":"Tim Weigle","address":[{"line1":"105 south market street","city":"lisbon","state":"OH","zip":"44432"}],"party":"Unknown","phones":["(330) 424-9511"],"urls":["http://www.columbianacounty.org/comm_home.htm"]},{"name":"James Hoppel","address":[{"line1":"105 south market street","city":"lisbon","state":"OH","zip":"44432"}],"party":"Unknown","phones":["(330) 424-9511"],"urls":["http://www.columbianacounty.org/comm_home.htm"]},{"name":"Mike Halleck","address":[{"line1":"105 south market street","city":"lisbon","state":"OH","zip":"44432"}],"party":"Unknown","phones":["(330) 424-9511"],"urls":["http://www.columbianacounty.org/comm_home.htm"]},{"name":"Robert Herron","address":[{"line1":"105 south market street","city":"lisbon","state":"OH","zip":"44432"}],"party":"Unknown"}]}