{"divisions":{"ocd-division/country:us/state:oh/county:scioto":{"name":"Scioto County","officeIndices":[0,1,2,3,4,5,6,7,8]}},"offices":[{"name":"Auditor","divisionId":"ocd-division/country:us/state:oh/county:scioto","officialIndices":[0]},{"name":"Coroner","divisionId":"ocd-division/country:us/state:oh/county:scioto","officialIndices":[1]},{"name":"Sheriff","divisionId":"ocd-division/country:us/state:oh/county:scioto","officialIndices":[2]},{"name":"Engineer","divisionId":"ocd-division/country:us/state:oh/county:scioto","officialIndices":[3]},{"name":"Treasurer","divisionId":"ocd-division/country:us/state:oh/county:scioto","officialIndices":[4]},{"name":"Clerk of Courts","divisionId":"ocd-division/country:us/state:oh/county:scioto","officialIndices":[5]},{"name":"County Recorder","divisionId":"ocd-division/country:us/state:oh/county:scioto","officialIndices":[6]},{"name":"County Commission","divisionId":"ocd-division/country:us/state:oh/county:scioto","officialIndices":[7,8,9]},{"name":"Prosecuting Attorney","divisionId":"ocd-division/country:us/state:oh/county:scioto","officialIndices":[10]}],"officials":[{"name":"David Lee Green","address":[{"line1":"602 7th street","city":"portsmouth","state":"OH","zip":"45662"}],"party":"Democratic","phones":["(740) 355-8324"],"urls":["http://www.sciotocountyohio.com/auditor.html"]},{"name":"Darren Adams","address":[{"line1":"602 7th street","city":"portsmouth","state":"OH","zip":"45662"}],"party":"Republican"},{"name":"Marti Donini","address":[{"line1":"602 7th street","city":"portsmouth","state":"OH","zip":"45662"}],"party":"Republican"},{"name":"Craig Opperman","address":[{"line1":"602 7th street","city":"portsmouth","state":"OH","zip":"45662"}],"party":"Democratic","phones":["(740) 355-8265"],"urls":["http://www.sciotocountyohio.com/engineer.html"]},{"name":"William Ogg","address":[{"line1":"602 7th street","city":"portsmouth","state":"OH","zip":"45662"}],"party":"Democratic"},{"name":"Lisa Darlene White","address":[{"line1":"602 7th street","city":"portsmouth","state":"OH","zip":"45662"}],"party":"Republican"},{"name":"Craig Jerome Opperman","address":[{"line1":"602 7th street","city":"portsmouth","state":"OH","zip":"45662"}],"party":"Democratic","phones":["(740) 355-8304"],"urls":["http://www.sciotocountyohio.com/recorder.html"],"emails":["galley@sciotocounty.net"]},{"name":"Michael Crabtree","address":[{"line1":"602 7th street","city":"portsmouth","state":"OH","zip":"45662"}],"party":"Republican","phones":["(740) 355-8313"],"urls":["http://www.sciotocountyohio.com/commissioners.html"],"emails":["crabtree@sciotocounty.net"]},{"name":"Douglas Eugene Coleman","address":[{"line1":"602 7th street","city":"portsmouth","state":"OH","zip":"45662"}],"party":"Republican","phones":["(740) 355-8313"],"urls":["http://www.sciotocountyohio.com/commissioners.html"],"emails":["dcoleman@sciotocounty.net"]},{"name":"Vernal Riffe III","address":[{"line1":"602 7th street","city":"portsmouth","state":"OH","zip":"45662"}],"party":"Democratic","phones":["(740) 355-8313"],"urls":["http://www.sciotocountyohio.com/commissioners.html"],"emails":["sriffe@sciotocounty.net"]},{"name":"Mark Kuhn","address":[{"line1":"602 7th street","city":"portsmouth","state":"OH","zip":"45662"}],"party":"Republican"}]}