{"divisions":{"ocd-division/country:us/state:oh/county:lorain":{"name":"Lorain County","officeIndices":[0,1,2,3,4,5,6,7,8]}},"offices":[{"name":"Coroner","divisionId":"ocd-division/country:us/state:oh/county:lorain","officialIndices":[0]},{"name":"Sheriff","divisionId":"ocd-division/country:us/state:oh/county:lorain","officialIndices":[1]},{"name":"Recorder","divisionId":"ocd-division/country:us/state:oh/county:lorain","officialIndices":[2]},{"name":"County Auditor","divisionId":"ocd-division/country:us/state:oh/county:lorain","officialIndices":[3]},{"name":"Clerk of Courts","divisionId":"ocd-division/country:us/state:oh/county:lorain","officialIndices":[4]},{"name":"County Engineer","divisionId":"ocd-division/country:us/state:oh/county:lorain","officialIndices":[5]},{"name":"County Treasurer","divisionId":"ocd-division/country:us/state:oh/county:lorain","officialIndices":[6]},{"name":"County Commission","divisionId":"ocd-division/country:us/state:oh/county:lorain","officialIndices":[7,8,9]},{"name":"Prosecuting Attorney","divisionId":"ocd-division/country:us/state:oh/county:lorain","officialIndices":[10]}],"officials":[{"name":"Stephan Evans","address":[{"line1":"226 middle ave.","city":"elyria","state":"OH","zip":"44035"}],"party":"Unknown","phones":["(440) 329-5000"],"urls":["http://www.loraincounty.com/government/county.shtml"]},{"name":"Phil Stammitti","address":[{"line1":"226 middle ave.","city":"elyria","state":"OH","zip":"44035"}],"party":"Unknown","phones":["(440) 329-5000"],"urls":["http://www.loraincounty.com/government/county.shtml"]},{"name":"Judy Nedwick","address":[{"line1":"226 middle ave.","city":"elyria","state":"OH","zip":"44035"}],"party":"Unknown","phones":["(440) 329-5000"],"urls":["http://www.loraincounty.com/government/county.shtml"]},{"name":"Craig Snodgrass","address":[{"line1":"226 middle ave.","city":"elyria","state":"OH","zip":"44035"}],"party":"Unknown","phones":["(440) 329-5000"],"urls":["http://www.loraincounty.com/government/county.shtml"]},{"name":"Ronald Nabakowski","address":[{"line1":"226 middle ave.","city":"elyria","state":"OH","zip":"44035"}],"party":"Unknown","phones":["(440) 329-5000"],"urls":["http://www.loraincounty.com/government/county.shtml"]},{"name":"Kenneth Carney","address":[{"line1":"226 middle ave.","city":"elyria","state":"OH","zip":"44035"}],"party":"Unknown","phones":["(440) 329-5000"],"urls":["http://www.loraincounty.com/government/county.shtml"]},{"name":"Daniel Talarek","address":[{"line1":"226 middle ave.","city":"elyria","state":"OH","zip":"44035"}],"party":"Unknown","phones":["(440) 329-5000"],"urls":["http://www.loraincounty.com/government/county.shtml"]},{"name":"Lori Kokoski","address":[{"line1":"226 middle ave.","city":"elyria","state":"OH","zip":"44035"}],"party":"Unknown","phones":["(440) 329-5000"],"urls":["http://www.loraincounty.com/government/county.shtml"]},{"name":"Tom Williams","address":[{"line1":"226 middle ave.","city":"elyria","state":"OH","zip":"44035"}],"party":"Unknown","phones":["(440) 329-5000"],"urls":["http://www.loraincounty.com/government/county.shtml"]},{"name":"Ted Kalo","address":[{"line1":"226 middle ave.","city":"elyria","state":"OH","zip":"44035"}],"party":"Unknown","phones":["(440) 329-5000"],"urls":["http://www.loraincounty.com/government/county.shtml"]},{"name":"Dennis Will","address":[{"line1":"226 middle ave.","city":"elyria","state":"OH","zip":"44035"}],"party":"Unknown","phones":["(440) 329-5000"],"urls":["http://www.loraincounty.com/government/county.shtml"]}]}