{"divisions":{"ocd-division/country:us/state:oh/county:knox":{"name":"Knox County","officeIndices":[0,1,2,3,4,5,6,7,8]}},"offices":[{"name":"Auditor","divisionId":"ocd-division/country:us/state:oh/county:knox","officialIndices":[0]},{"name":"Coroner","divisionId":"ocd-division/country:us/state:oh/county:knox","officialIndices":[1]},{"name":"Sheriff","divisionId":"ocd-division/country:us/state:oh/county:knox","officialIndices":[2]},{"name":"Clerk Of Courts","divisionId":"ocd-division/country:us/state:oh/county:knox","officialIndices":[3]},{"name":"County Engineer","divisionId":"ocd-division/country:us/state:oh/county:knox","officialIndices":[4]},{"name":"County Recorder","divisionId":"ocd-division/country:us/state:oh/county:knox","officialIndices":[5]},{"name":"County Treasurer","divisionId":"ocd-division/country:us/state:oh/county:knox","officialIndices":[6]},{"name":"County Commission","divisionId":"ocd-division/country:us/state:oh/county:knox","officialIndices":[7,8,9]},{"name":"Prosecuting Attorney","divisionId":"ocd-division/country:us/state:oh/county:knox","officialIndices":[10]}],"officials":[{"name":"Jonette Curry","address":[{"line1":"117 e. high street","city":"mount vernon","state":"OH","zip":"43050"}],"party":"Unknown","phones":["(740) 393-6750"],"urls":["http://www.co.knox.oh.us/officials/"],"emails":["auditor@co.knox.oh.us"]},{"name":"Jennifer Ogle","address":[{"line1":"117 e. high street","city":"mount vernon","state":"OH","zip":"43050"}],"party":"Unknown","urls":["http://www.co.knox.oh.us/officials/"]},{"name":"David Shaffer","address":[{"line1":"117 e. high street","city":"mount vernon","state":"OH","zip":"43050"}],"party":"Unknown","urls":["http://www.co.knox.oh.us/officials/"]},{"name":"Mary Jo Hawkins","address":[{"line1":"117 e. high street","city":"mount vernon","state":"OH","zip":"43050"}],"party":"Unknown","phones":["(740) 393-6788"],"urls":["http://www.co.knox.oh.us/officials/"]},{"name":"James Henry","address":[{"line1":"117 e. high street","city":"mount vernon","state":"OH","zip":"43050"}],"party":"Unknown","urls":["http://www.co.knox.oh.us/officials/"]},{"name":"John Lybarger","address":[{"line1":"117 e. high street","city":"mount vernon","state":"OH","zip":"43050"}],"party":"Unknown","urls":["http://www.co.knox.oh.us/officials/"]},{"name":"Sandra Mizer","address":[{"line1":"117 e. high street","city":"mount vernon","state":"OH","zip":"43050"}],"party":"Unknown","urls":["http://www.co.knox.oh.us/officials/"]},{"name":"Roger Reed","address":[{"line1":"117 e. high street","city":"mount vernon","state":"OH","zip":"43050"}],"party":"Unknown","phones":["(740) 393-6703"],"urls":["http://www.co.knox.oh.us/officials/"],"emails":["rogerreed@co.knox.oh.us"]},{"name":"Teresa Bemiller","address":[{"line1":"117 e. high street","city":"mount vernon","state":"OH","zip":"43050"}],"party":"Unknown","phones":["(740) 393-6703"],"urls":["http://www.co.knox.oh.us/officials/"],"emails":["teresabemiller@co.knox.oh.us"]},{"name":"Thom Collier","address":[{"line1":"117 e. high street","city":"mount vernon","state":"OH","zip":"43050"}],"party":"Unknown","phones":["(740) 393-6703"],"urls":["http://www.co.knox.oh.us/officials/"],"emails":["thomcollier@co.knox.oh.us"]},{"name":"John Thatcher","address":[{"line1":"117 e. high street","city":"mount vernon","state":"OH","zip":"43050"}],"party":"Unknown","urls":["http://www.co.knox.oh.us/officials/"]}]}