{"divisions":{"ocd-division/country:us/state:oh/county:delaware":{"name":"Delaware County","officeIndices":[0,1,2,3,4,5,6,7,8]}},"offices":[{"name":"Auditor","divisionId":"ocd-division/country:us/state:oh/county:delaware","officialIndices":[0]},{"name":"Coroner","divisionId":"ocd-division/country:us/state:oh/county:delaware","officialIndices":[1]},{"name":"Sheriff","divisionId":"ocd-division/country:us/state:oh/county:delaware","officialIndices":[2]},{"name":"Recorder","divisionId":"ocd-division/country:us/state:oh/county:delaware","officialIndices":[3]},{"name":"Treasurer","divisionId":"ocd-division/country:us/state:oh/county:delaware","officialIndices":[4]},{"name":"Clerk of Courts","divisionId":"ocd-division/country:us/state:oh/county:delaware","officialIndices":[5]},{"name":"County Engineer","divisionId":"ocd-division/country:us/state:oh/county:delaware","officialIndices":[6]},{"name":"County Commission","divisionId":"ocd-division/country:us/state:oh/county:delaware","officialIndices":[7,8,9]},{"name":"Prosecuting Attorney","divisionId":"ocd-division/country:us/state:oh/county:delaware","officialIndices":[10]}],"officials":[{"name":"George Kaitsa","party":"Unknown","phones":["(740) 833-2900"],"urls":["http://www.co.delaware.oh.us/index.php/auditor"]},{"name":"Mark Hickman","address":[{"line1":"140 n. sandusky st.","city":"delaware","state":"OH","zip":"43015"}],"party":"Unknown","phones":["(740) 833-2103"]},{"name":"Russell L. Martin","address":[{"line1":"140 n. sandusky st.","city":"delaware","state":"OH","zip":"43015"}],"party":"Unknown","phones":["(740) 833-2103"],"urls":["http://www.delawarecountysheriff.com/"]},{"name":"Melissa Jordan","address":[{"line1":"140 n. sandusky st.","city":"delaware","state":"OH","zip":"43015"}],"party":"Unknown","phones":["(740) 833-2103"]},{"name":"Jon Peterson","address":[{"line1":"140 n. sandusky st.","city":"delaware","state":"OH","zip":"43015"}],"party":"Unknown","phones":["(740) 833-2103"],"urls":["http://www.co.delaware.oh.us/treasurer/"]},{"name":"Jan Antonoplos","address":[{"line1":"140 n. sandusky st.","city":"delaware","state":"OH","zip":"43015"}],"party":"Unknown","phones":["(740) 833-2103"]},{"name":"Chris Bauserman","address":[{"line1":"140 n. sandusky st.","city":"delaware","state":"OH","zip":"43015"}],"party":"Unknown","phones":["(740) 833-2103"],"urls":["http://www.co.delaware.oh.us/engineer/index.htm"]},{"name":"Gary Merrell","address":[{"line1":"140 n. sandusky st.","city":"delaware","state":"OH","zip":"43015"}],"party":"Unknown","phones":["(740) 833-2102"],"urls":["http://www.co.delaware.oh.us/index.php/commissioners"]},{"name":"Dennis Stapleton","address":[{"line1":"140 n. sandusky st.","city":"delaware","state":"OH","zip":"43015"}],"party":"Unknown","phones":["(740) 833-2101"],"urls":["http://www.co.delaware.oh.us/index.php/commissioners"]},{"name":"Ken O'Brien","address":[{"line1":"140 n. sandusky st.","city":"delaware","state":"OH","zip":"43015"}],"party":"Unknown","phones":["(740) 833-2103"],"urls":["http://www.co.delaware.oh.us/index.php/commissioners"]},{"name":"Carol O'Brien","address":[{"line1":"140 n. sandusky st.","city":"delaware","state":"OH","zip":"43015"}],"party":"Unknown","phones":["(740) 833-2103"],"urls":["http://www.co.delaware.oh.us/prosecutor/Site/Home.html"]}]}