{"divisions":{"ocd-division/country:us/state:oh/county:lucas":{"name":"Lucas County","officeIndices":[0,1,2,3,4,5,6,7]}},"offices":[{"name":"Auditor","divisionId":"ocd-division/country:us/state:oh/county:lucas","officialIndices":[0]},{"name":"Coroner","divisionId":"ocd-division/country:us/state:oh/county:lucas","officialIndices":[1]},{"name":"Sheriff","divisionId":"ocd-division/country:us/state:oh/county:lucas","officialIndices":[2]},{"name":"Recorder","divisionId":"ocd-division/country:us/state:oh/county:lucas","officialIndices":[3]},{"name":"Treasurer","divisionId":"ocd-division/country:us/state:oh/county:lucas","officialIndices":[4]},{"name":"County Engineer","divisionId":"ocd-division/country:us/state:oh/county:lucas","officialIndices":[5]},{"name":"County Commission","divisionId":"ocd-division/country:us/state:oh/county:lucas","officialIndices":[6,7,8]},{"name":"Prosecuting Attorney","divisionId":"ocd-division/country:us/state:oh/county:lucas","officialIndices":[9]}],"officials":[{"name":"Anita Lopez","address":[{"line1":"1 GOVERNMENT CTR # 600","city":"toledo","state":"OH","zip":"43604"}],"party":"Democratic","phones":["(419) 213-4406"],"emails":["alopez@co.lucas.oh.us"]},{"name":"James Patrick","address":[{"line1":"2595 arlington ave","city":"toledo","state":"OH","zip":"43614"}],"party":"Democratic","phones":["(419) 213-3900"]},{"name":"John R Tharp","address":[{"line1":"1622 spielbusch ave","city":"toledo","state":"OH","zip":"43604"}],"party":"Democratic","phones":["(419) 213-4900"]},{"name":"Phillip D Copeland","address":[{"line1":"1 GOVERNMENT CTR # #700","city":"toledo","state":"OH","zip":"43604"}],"party":"Democratic","phones":["(419) 213-4400"]},{"name":"Wade Kapszukiewicz","address":[{"line1":"1 GOVERNMENT CTR # 500","city":"toledo","state":"OH","zip":"43604"}],"party":"Democratic","phones":["(419) 213-4305"],"emails":["wkapszukiewicz@co.lucas.oh.us"]},{"name":"Keith Earley","address":[{"line1":"1 GOVERNMENT CTR # 870","city":"toledo","state":"OH","zip":"43604"}],"party":"Democratic","phones":["(419) 213-4540"],"emails":["kearley@co.lucas.oh.us"]},{"name":"Tina Skeldon-Wozniak","address":[{"line1":"1 GOVERNMENT CTR # 500","city":"toledo","state":"OH","zip":"43604"}],"party":"Democratic","phones":["(419) 213-4500"],"emails":["twozniak@co.lucas.oh.us"]},{"name":"Pete Gerken","address":[{"line1":"1 GOVERNMENT CTR # 500","city":"toledo","state":"OH","zip":"43604"}],"party":"Democratic","phones":["(419) 213-4500"],"emails":["pgerken@co.lucas.oh.us"]},{"name":"Carol Contrada","address":[{"line1":"1 GOVERNMENT CTR # 500","city":"toledo","state":"OH","zip":"43604"}],"party":"Democratic","phones":["(419) 213-4500"],"emails":["ccontrada@co.lucas.oh.us"]},{"name":"Julia Bates","address":[{"line1":"700 adams st.","city":"toledo","state":"OH","zip":"43604"}],"party":"Democratic","phones":["(419) 213-4700"],"emails":["jbates@co.lucas.oh.us"]}]}